CCSDS_OEM_VERS = 1.0
CREATION_DATE  = 2017-05-11T11:39:16
ORIGINATOR     = GMAT USER

META_START
OBJECT_NAME          = MOPSSat_alt_35785_km_RAAN_180_109
OBJECT_ID            = SatId
CENTER_NAME          = Earth
REF_FRAME            = EME2000
TIME_SYSTEM          = UTC
START_TIME           = 2017-01-01T00:00:00.000
USEABLE_START_TIME   = 2017-01-01T00:00:00.000
USEABLE_STOP_TIME    = 2017-01-02T00:00:00.000
STOP_TIME            = 2017-01-02T00:00:00.000
INTERPOLATION        = Lagrange
INTERPOLATION_DEGREE = 7 
META_STOP


                                                                                   

2017-01-01T08:05:50.000   3.582220795076148e+04  -3.140335881018062e+04  -5.269999544736629e-01   2.068927661694528e+00   1.732226783162945e+00  -7.033178853707135e-05
2017-01-01T08:06:00.000   3.584289062318881e+04  -3.138603075481121e+04  -5.277034435739891e-01   2.067606712380002e+00   1.733384099078593e+00  -7.036602618705857e-05
2017-01-01T08:06:10.000   3.586356008422902e+04  -3.136869113081815e+04  -5.284072749397891e-01   2.066285344988064e+00   1.734540474719270e+00  -7.040024028015537e-05
2017-01-01T08:06:20.000   3.588421632948441e+04  -3.135133994778867e+04  -5.291114483278300e-01   2.064963560077353e+00   1.735695910276084e+00  -7.043443078776311e-05
2017-01-01T08:06:30.000   3.590485935462058e+04  -3.133397721525894e+04  -5.298159634965837e-01   2.063641358202178e+00   1.736850405943377e+00  -7.046859768138717e-05
2017-01-01T08:06:40.000   3.592548915526138e+04  -3.131660294280295e+04  -5.305208202026250e-01   2.062318739919279e+00   1.738003961912858e+00  -7.050274093246130e-05
2017-01-01T08:06:50.000   3.594610572745448e+04  -3.129921713964040e+04  -5.312260182165360e-01   2.060995705757981e+00   1.739156578399633e+00  -7.053686051312361e-05
2017-01-01T08:07:00.000   3.596670906720574e+04  -3.128181981502873e+04  -5.319315573070043e-01   2.059672256250032e+00   1.740308255616168e+00  -7.057095639544045e-05
2017-01-01T08:07:10.000   3.598729917058466e+04  -3.126441097817467e+04  -5.326374372444129e-01   2.058348391922873e+00   1.741458993778184e+00  -7.060502855158284e-05
2017-01-01T08:07:20.000   3.600787603345585e+04  -3.124699063845801e+04  -5.333436577917450e-01   2.057024113316719e+00   1.742608793089633e+00  -7.063907695337673e-05
2017-01-01T08:07:30.000   3.602843965167896e+04  -3.122955880526608e+04  -5.340502187113230e-01   2.055699420971890e+00   1.743757653753888e+00  -7.067310157263929e-05
2017-01-01T08:07:40.000   3.604899002110796e+04  -3.121211548799285e+04  -5.347571197648275e-01   2.054374315428795e+00   1.744905575973692e+00  -7.070710238117571e-05
2017-01-01T08:07:50.000   3.606952713739512e+04  -3.119466069620839e+04  -5.354643607064551e-01   2.053048797240722e+00   1.746052559940248e+00  -7.074107935046056e-05
2017-01-01T08:08:00.000   3.609005099625567e+04  -3.117719443943135e+04  -5.361719412921165e-01   2.051722866956626e+00   1.747198605847962e+00  -7.077503245207016e-05
2017-01-01T08:08:10.000   3.611056159336140e+04  -3.115971672722017e+04  -5.368798612757498e-01   2.050396525128041e+00   1.748343713888514e+00  -7.080896165750810e-05
2017-01-01T08:08:20.000   3.613105892481111e+04  -3.114222756877197e+04  -5.375881204255630e-01   2.049069772278632e+00   1.749487884277124e+00  -7.084286693897965e-05
2017-01-01T08:08:30.000   3.615154298665887e+04  -3.112472697332455e+04  -5.382967185077533e-01   2.047742608934721e+00   1.750631117226207e+00  -7.087674826861519e-05
2017-01-01T08:08:40.000   3.617201377503584e+04  -3.110721495005269e+04  -5.390056552907072e-01   2.046415035617403e+00   1.751773412952182e+00  -7.091060561867063e-05
2017-01-01T08:08:50.000   3.619247128582193e+04  -3.108969150834653e+04  -5.397149305337186e-01   2.045087052863703e+00   1.752914771657125e+00  -7.094443896098718e-05
2017-01-01T08:09:00.000   3.621291551491705e+04  -3.107215665758207e+04  -5.404245439962916e-01   2.043758661209130e+00   1.754055193543928e+00  -7.097824826743739e-05
2017-01-01T08:09:10.000   3.623334645817849e+04  -3.105461040717403e+04  -5.411344954359981e-01   2.042429861191696e+00   1.755194678812798e+00  -7.101203350982231e-05
2017-01-01T08:09:20.000   3.625376411144592e+04  -3.103705276655602e+04  -5.418447846092889e-01   2.041100653350387e+00   1.756333227662666e+00  -7.104579465991285e-05
2017-01-01T08:09:30.000   3.627416847055210e+04  -3.101948374517013e+04  -5.425554112719089e-01   2.039771038224392e+00   1.757470840291773e+00  -7.107953168946705e-05
2017-01-01T08:09:40.000   3.629455953134729e+04  -3.100190335244582e+04  -5.432663751797492e-01   2.038441016351514e+00   1.758607516899029e+00  -7.111324457027084e-05
2017-01-01T08:09:50.000   3.631493728971140e+04  -3.098431159779079e+04  -5.439776760892251e-01   2.037110588267452e+00   1.759743257684706e+00  -7.114693327415540e-05
2017-01-01T08:10:00.000   3.633530174157708e+04  -3.096670849056951e+04  -5.446893137581360e-01   2.035779754504206e+00   1.760878062851705e+00  -7.118059777303850e-05
2017-01-01T08:10:10.000   3.635565288286819e+04  -3.094909404015692e+04  -5.454012879434960e-01   2.034448515594129e+00   1.762011932602140e+00  -7.121423803882148e-05
2017-01-01T08:10:20.000   3.637599070976672e+04  -3.093146825570534e+04  -5.461135984109459e-01   2.033116872052349e+00   1.763144867152181e+00  -7.124785404383505e-05
2017-01-01T08:10:30.000   3.639631521838903e+04  -3.091383114642674e+04  -5.468262449233543e-01   2.031784824398071e+00   1.764276866714043e+00  -7.128144576029949e-05
2017-01-01T08:10:40.000   3.641662640490838e+04  -3.089618272148614e+04  -5.475392272451222e-01   2.030452373146521e+00   1.765407931502802e+00  -7.131501316052895e-05
2017-01-01T08:10:50.000   3.643692426507988e+04  -3.087852299041428e+04  -5.482525451255158e-01   2.029119518840110e+00   1.766538061709944e+00  -7.134855621614100e-05
2017-01-01T08:11:00.000   3.645720879471566e+04  -3.086085196269496e+04  -5.489661983153309e-01   2.027786262017279e+00   1.767667257529822e+00  -7.138207489884739e-05
2017-01-01T08:11:10.000   3.647747998956202e+04  -3.084316964787161e+04  -5.496801865625960e-01   2.026452603220538e+00   1.768795519152820e+00  -7.141556918024895e-05
2017-01-01T08:11:20.000   3.649773784562463e+04  -3.082547605526606e+04  -5.503945096239329e-01   2.025118542975219e+00   1.769922846783469e+00  -7.144903903237869e-05
2017-01-01T08:11:30.000   3.651798235889999e+04  -3.080777119421033e+04  -5.511091672551892e-01   2.023784081807003e+00   1.771049240625481e+00  -7.148248442725248e-05
2017-01-01T08:11:40.000   3.653821352543733e+04  -3.079005507399328e+04  -5.518241592135947e-01   2.022449220237875e+00   1.772174700885196e+00  -7.151590533697331e-05
2017-01-01T08:11:50.000   3.655843134131384e+04  -3.077232770388058e+04  -5.525394852569462e-01   2.021113958787680e+00   1.773299227770199e+00  -7.154930173368497e-05
2017-01-01T08:12:00.000   3.657863580262414e+04  -3.075458909312534e+04  -5.532551451431876e-01   2.019778297974885e+00   1.774422821488734e+00  -7.158267358955992e-05
2017-01-01T08:12:10.000   3.659882690545599e+04  -3.073683925098923e+04  -5.539711386295533e-01   2.018442238318175e+00   1.775545482248360e+00  -7.161602087675763e-05
2017-01-01T08:12:20.000   3.661900464587830e+04  -3.071907818675186e+04  -5.546874654721875e-01   2.017105780337188e+00   1.776667210255272e+00  -7.164934356740943e-05
2017-01-01T08:12:30.000   3.663916901991823e+04  -3.070130590973243e+04  -5.554041254252781e-01   2.015768924554107e+00   1.777788005713040e+00  -7.168264163357598e-05
2017-01-01T08:12:40.000   3.665932002362217e+04  -3.068352242923545e+04  -5.561211182432410e-01   2.014431671489595e+00   1.778907868825992e+00  -7.171591504734974e-05
2017-01-01T08:12:50.000   3.667945765279137e+04  -3.066572775478612e+04  -5.568384436712444e-01   2.013094021680452e+00   1.780026799784544e+00  -7.174916378041358e-05
2017-01-01T08:13:00.000   3.669958190330257e+04  -3.064792189584531e+04  -5.575561014566842e-01   2.011755975658226e+00   1.781144798782994e+00  -7.178238780457492e-05
2017-01-01T08:13:10.000   3.671969277098851e+04  -3.063010486191544e+04  -5.582740913449241e-01   2.010417533957161e+00   1.782261866012892e+00  -7.181558709156699e-05
2017-01-01T08:13:20.000   3.673979025210080e+04  -3.061227666213073e+04  -5.589924130958031e-01   2.009078697083420e+00   1.783378001688749e+00  -7.184876161381789e-05
2017-01-01T08:13:30.000   3.675987434284811e+04  -3.059443730566588e+04  -5.597110664671698e-01   2.007739465545784e+00   1.784493206022385e+00  -7.188191134368323e-05
2017-01-01T08:13:40.000   3.677994503950115e+04  -3.057658680164359e+04  -5.604300512186091e-01   2.006399839848698e+00   1.785607479228758e+00  -7.191503625362111e-05
2017-01-01T08:13:50.000   3.680000233813076e+04  -3.055872515936418e+04  -5.611493671021744e-01   2.005059820509580e+00   1.786720821511405e+00  -7.194813631575471e-05
2017-01-01T08:14:00.000   3.682004623480282e+04  -3.054085238813570e+04  -5.618690138692549e-01   2.003719408045984e+00   1.787833233073282e+00  -7.198121150219931e-05
2017-01-01T08:14:10.000   3.684007672557754e+04  -3.052296849727313e+04  -5.625889912705937e-01   2.002378602975587e+00   1.788944714116722e+00  -7.201426178505914e-05
2017-01-01T08:14:20.000   3.686009380631860e+04  -3.050507349627195e+04  -5.633092990493211e-01   2.001037405829129e+00   1.790055264832862e+00  -7.204728713611776e-05
2017-01-01T08:14:30.000   3.688009747295093e+04  -3.048716739457500e+04  -5.640299369503220e-01   1.999695817133001e+00   1.791164885415922e+00  -7.208028752725830e-05
2017-01-01T08:14:40.000   3.690008772135881e+04  -3.046925020166421e+04  -5.647509047165495e-01   1.998353837416103e+00   1.792273576057570e+00  -7.211326293029697e-05
2017-01-01T08:14:50.000   3.692006454783723e+04  -3.045132192665626e+04  -5.654722021052954e-01   1.997011467179556e+00   1.793381336971939e+00  -7.214621331772341e-05
